      2.10          N: GNSS NAV DATA                        RINEX VERSION / TYPE
fic2rin                                 06/06/2018 00:13:01 PGM / RUN BY / DATE
                                                            END OF HEADER
 4 18  6  6  0  0  0.0 6.721075624228e-05 3.296918293927e-12 0.000000000000e+00
    1.130000000000e+02 3.528125000000e+01 5.225931966757e-09 2.734458385739e-01
    1.784414052963e-06 9.845387306996e-03 8.663162589073e-06 5.153706361771e+03
    2.592000000000e+05-7.636845111847e-08 1.338138202279e+00 1.341104507446e-07
    9.788428419448e-01 2.242812500000e+02 9.290553202318e-01-7.924615806343e-09
   -1.010756387775e-10 1.000000000000e+00 2.004000000000e+03 0.000000000000e+00
    4.850000000000e+00 6.300000000000e+01-1.955777406693e-08 1.130000000000e+02
    2.550660000000e+05 4.000000000000e+00
 4 18  6  5 23 59 44.0 6.721820682287e-05 3.296918293927e-12 0.000000000000e+00
    0.000000000000e+00 3.528125000000e+01 5.225931966757e-09 2.711122560223e-01
    1.784414052963e-06 9.845386026427e-03 8.663162589073e-06 5.153706356049e+03
    2.591840000000e+05-7.636845111847e-08 1.338138341256e+00 1.341104507446e-07
    9.788428302414e-01 2.242812500000e+02 9.290553319351e-01-7.924615806343e-09
   -1.007184810433e-10 1.000000000000e+00 2.004000000000e+03 0.000000000000e+00
    2.400000000000e+00 6.300000000000e+01-1.955777406693e-08 0.000000000000e+00
    2.554860000000e+05 4.000000000000e+00
